[{"OBJECT_NAME":"KUIPER-00269","OBJECT_ID":"2026-072Q","EPOCH":"2026-04-18T14:25:55.707744","MEAN_MOTION":15.37702429,"ECCENTRICITY":0.0004721,"INCLINATION":51.8732,"RA_OF_ASC_NODE":105.0652,"ARG_OF_PERICENTER":137.425,"MEAN_ANOMALY":222.7103,"EPHEMERIS_TYPE":0,"CLASSIFICATION_TYPE":"U","NORAD_CAT_ID":68587,"ELEMENT_SET_NO":999,"REV_AT_EPOCH":221,"BSTAR":0.00064104453,"MEAN_MOTION_DOT":0.00023796,"MEAN_MOTION_DDOT":0},{"OBJECT_NAME":"KUIPER-00272","OBJECT_ID":"2026-072R","EPOCH":"2026-04-17T21:19:56.071488","MEAN_MOTION":15.37434103,"ECCENTRICITY":0.00057991,"INCLINATION":51.8712,"RA_OF_ASC_NODE":108.5397,"ARG_OF_PERICENTER":144.563,"MEAN_ANOMALY":215.5743,"EPHEMERIS_TYPE":0,"CLASSIFICATION_TYPE":"U","NORAD_CAT_ID":68588,"ELEMENT_SET_NO":999,"REV_AT_EPOCH":210,"BSTAR":0.00030683935,"MEAN_MOTION_DOT":0.00011067,"MEAN_MOTION_DDOT":0},{"OBJECT_NAME":"KUIPER-00285","OBJECT_ID":"2026-072S","EPOCH":"2026-04-17T21:21:12.773952","MEAN_MOTION":15.37341864,"ECCENTRICITY":0.00062692,"INCLINATION":51.8722,"RA_OF_ASC_NODE":108.5453,"ARG_OF_PERICENTER":150.8397,"MEAN_ANOMALY":209.2941,"EPHEMERIS_TYPE":0,"CLASSIFICATION_TYPE":"U","NORAD_CAT_ID":68589,"ELEMENT_SET_NO":999,"REV_AT_EPOCH":210,"BSTAR":0.00030625586,"MEAN_MOTION_DOT":0.00011012,"MEAN_MOTION_DDOT":0},{"OBJECT_NAME":"KUIPER-00286","OBJECT_ID":"2026-072T","EPOCH":"2026-04-17T21:15:45.364608","MEAN_MOTION":15.377652,"ECCENTRICITY":0.00041833,"INCLINATION":51.872,"RA_OF_ASC_NODE":108.5213,"ARG_OF_PERICENTER":132.8353,"MEAN_ANOMALY":227.2986,"EPHEMERIS_TYPE":0,"CLASSIFICATION_TYPE":"U","NORAD_CAT_ID":68590,"ELEMENT_SET_NO":999,"REV_AT_EPOCH":210,"BSTAR":0.00031272026,"MEAN_MOTION_DOT":0.0001141,"MEAN_MOTION_DDOT":0},{"OBJECT_NAME":"KUIPER-00289","OBJECT_ID":"2026-072U","EPOCH":"2026-04-18T13:14:57.260832","MEAN_MOTION":15.36052317,"ECCENTRICITY":0.00106129,"INCLINATION":51.8649,"RA_OF_ASC_NODE":105.478,"ARG_OF_PERICENTER":168.5999,"MEAN_ANOMALY":191.5229,"EPHEMERIS_TYPE":0,"CLASSIFICATION_TYPE":"U","NORAD_CAT_ID":68591,"ELEMENT_SET_NO":999,"REV_AT_EPOCH":220,"BSTAR":0.0006005703,"MEAN_MOTION_DOT":0.0002112,"MEAN_MOTION_DDOT":0},{"OBJECT_NAME":"KUIPER-00290","OBJECT_ID":"2026-072V","EPOCH":"2026-04-18T13:14:05.415648","MEAN_MOTION":15.36069138,"ECCENTRICITY":0.00109088,"INCLINATION":51.863,"RA_OF_ASC_NODE":105.4724,"ARG_OF_PERICENTER":166.284,"MEAN_ANOMALY":193.8444,"EPHEMERIS_TYPE":0,"CLASSIFICATION_TYPE":"U","NORAD_CAT_ID":68592,"ELEMENT_SET_NO":999,"REV_AT_EPOCH":220,"BSTAR":0.00058408766,"MEAN_MOTION_DOT":0.00020541,"MEAN_MOTION_DDOT":0},{"OBJECT_NAME":"KUIPER-00293","OBJECT_ID":"2026-072W","EPOCH":"2026-04-18T11:45:07.484544","MEAN_MOTION":15.35600561,"ECCENTRICITY":0.00113426,"INCLINATION":51.863,"RA_OF_ASC_NODE":105.808,"ARG_OF_PERICENTER":170.8472,"MEAN_ANOMALY":189.2723,"EPHEMERIS_TYPE":0,"CLASSIFICATION_TYPE":"U","NORAD_CAT_ID":68593,"ELEMENT_SET_NO":999,"REV_AT_EPOCH":219,"BSTAR":-0.00018258884,"MEAN_MOTION_DOT":-6.815e-5,"MEAN_MOTION_DDOT":0},{"OBJECT_NAME":"KUIPER-00294","OBJECT_ID":"2026-072X","EPOCH":"2026-04-18T16:18:31.113792","MEAN_MOTION":15.36312082,"ECCENTRICITY":0.00095581,"INCLINATION":51.8668,"RA_OF_ASC_NODE":104.8344,"ARG_OF_PERICENTER":166.9671,"MEAN_ANOMALY":193.1564,"EPHEMERIS_TYPE":0,"CLASSIFICATION_TYPE":"U","NORAD_CAT_ID":68594,"ELEMENT_SET_NO":999,"REV_AT_EPOCH":222,"BSTAR":0.00055281243,"MEAN_MOTION_DOT":0.00019564,"MEAN_MOTION_DDOT":0},{"OBJECT_NAME":"KUIPER-00296","OBJECT_ID":"2026-072Y","EPOCH":"2026-04-18T13:06:09.753408","MEAN_MOTION":15.36706435,"ECCENTRICITY":0.00084978,"INCLINATION":51.869,"RA_OF_ASC_NODE":105.4413,"ARG_OF_PERICENTER":160.6872,"MEAN_ANOMALY":199.4438,"EPHEMERIS_TYPE":0,"CLASSIFICATION_TYPE":"U","NORAD_CAT_ID":68595,"ELEMENT_SET_NO":999,"REV_AT_EPOCH":220,"BSTAR":0.00053050098,"MEAN_MOTION_DOT":0.00018995,"MEAN_MOTION_DDOT":0},{"OBJECT_NAME":"KUIPER-00297","OBJECT_ID":"2026-072Z","EPOCH":"2026-04-17T23:09:39.517344","MEAN_MOTION":15.36140391,"ECCENTRICITY":0.00098144,"INCLINATION":51.8616,"RA_OF_ASC_NODE":108.2926,"ARG_OF_PERICENTER":165.2517,"MEAN_ANOMALY":194.8757,"EPHEMERIS_TYPE":0,"CLASSIFICATION_TYPE":"U","NORAD_CAT_ID":68596,"ELEMENT_SET_NO":999,"REV_AT_EPOCH":211,"BSTAR":0.00039152034,"MEAN_MOTION_DOT":0.00013654,"MEAN_MOTION_DDOT":0},{"OBJECT_NAME":"KUIPER-00300","OBJECT_ID":"2026-072AA","EPOCH":"2026-04-17T21:27:12.932352","MEAN_MOTION":15.36867041,"ECCENTRICITY":0.00079884,"INCLINATION":51.8661,"RA_OF_ASC_NODE":108.5711,"ARG_OF_PERICENTER":157.9659,"MEAN_ANOMALY":202.1672,"EPHEMERIS_TYPE":0,"CLASSIFICATION_TYPE":"U","NORAD_CAT_ID":68597,"ELEMENT_SET_NO":999,"REV_AT_EPOCH":210,"BSTAR":0.00029257162,"MEAN_MOTION_DOT":0.00010341,"MEAN_MOTION_DDOT":0},{"OBJECT_NAME":"KUIPER-00301","OBJECT_ID":"2026-072AB","EPOCH":"2026-04-17T21:31:15.058848","MEAN_MOTION":15.36540316,"ECCENTRICITY":0.00086578,"INCLINATION":51.8639,"RA_OF_ASC_NODE":108.5876,"ARG_OF_PERICENTER":161.2098,"MEAN_ANOMALY":198.921,"EPHEMERIS_TYPE":0,"CLASSIFICATION_TYPE":"U","NORAD_CAT_ID":68598,"ELEMENT_SET_NO":999,"REV_AT_EPOCH":210,"BSTAR":0.00028453234,"MEAN_MOTION_DOT":9.939e-5,"MEAN_MOTION_DDOT":0},{"OBJECT_NAME":"KUIPER-00304","OBJECT_ID":"2026-072AC","EPOCH":"2026-04-17T23:06:02.569536","MEAN_MOTION":15.36458128,"ECCENTRICITY":0.0009305,"INCLINATION":51.8654,"RA_OF_ASC_NODE":108.2793,"ARG_OF_PERICENTER":161.0401,"MEAN_ANOMALY":199.0934,"EPHEMERIS_TYPE":0,"CLASSIFICATION_TYPE":"U","NORAD_CAT_ID":68599,"ELEMENT_SET_NO":999,"REV_AT_EPOCH":211,"BSTAR":0.00040322161,"MEAN_MOTION_DOT":0.0001422,"MEAN_MOTION_DDOT":0},{"OBJECT_NAME":"KUIPER-00317","OBJECT_ID":"2026-072AD","EPOCH":"2026-04-18T13:04:59.348640","MEAN_MOTION":15.36795084,"ECCENTRICITY":0.00084016,"INCLINATION":51.8678,"RA_OF_ASC_NODE":105.4354,"ARG_OF_PERICENTER":154.8618,"MEAN_ANOMALY":205.2779,"EPHEMERIS_TYPE":0,"CLASSIFICATION_TYPE":"U","NORAD_CAT_ID":68600,"ELEMENT_SET_NO":999,"REV_AT_EPOCH":220,"BSTAR":0.00055207882,"MEAN_MOTION_DOT":0.00019842,"MEAN_MOTION_DDOT":0},{"OBJECT_NAME":"KUIPER-00320","OBJECT_ID":"2026-072AE","EPOCH":"2026-04-17T21:38:53.792736","MEAN_MOTION":15.3595539,"ECCENTRICITY":0.00110275,"INCLINATION":51.8593,"RA_OF_ASC_NODE":108.6171,"ARG_OF_PERICENTER":167.2703,"MEAN_ANOMALY":192.8563,"EPHEMERIS_TYPE":0,"CLASSIFICATION_TYPE":"U","NORAD_CAT_ID":68601,"ELEMENT_SET_NO":999,"REV_AT_EPOCH":210,"BSTAR":0.00026184997,"MEAN_MOTION_DOT":8.945e-5,"MEAN_MOTION_DDOT":0},{"OBJECT_NAME":"STARLINK-37135","OBJECT_ID":"2026-073A","EPOCH":"2026-04-19T00:00:02.000160","MEAN_MOTION":15.75163413,"ECCENTRICITY":9.186e-5,"INCLINATION":97.2851,"RA_OF_ASC_NODE":306.7129,"ARG_OF_PERICENTER":92.2542,"MEAN_ANOMALY":97.1444,"EPHEMERIS_TYPE":0,"CLASSIFICATION_TYPE":"U","NORAD_CAT_ID":68602,"ELEMENT_SET_NO":999,"REV_AT_EPOCH":301,"BSTAR":-0.00015623652,"MEAN_MOTION_DOT":-0.00023342,"MEAN_MOTION_DDOT":0}]
